STARLINK-37262
1 68508U 26068A   26104.89256940  .00156324  00000+0  77896-3 0  9995
2 68508  53.1587 327.8979 0000961  91.9130 268.2003 15.80938180  2390
STARLINK-36292
1 68509U 26068B   26104.89181896  .00159411  00000+0  79397-3 0  9991
2 68509  53.1581 327.8916 0000840  78.6938 281.4179 15.80938614  2393
STARLINK-37260
1 68510U 26068C   26104.89107037  .00223468  00000+0  11053-2 0  9996
2 68510  53.1583 327.8873 0000836  84.7574 275.3544 15.80900809  2391
STARLINK-37280
1 68511U 26068D   26104.82710281  .00222046  00000+0  10993-2 0  9994
2 68511  53.1581 328.1986 0001126  35.4279 324.6818 15.80883976  2383
STARLINK-37286
1 68512U 26068E   26104.88956993  .00291174  00000+0  14279-2 0  9992
2 68512  53.1582 327.8775 0000598  78.4723 281.6367 15.80898442  2396
STARLINK-36250
1 68513U 26068F   26104.88881795  .00236531  00000+0  11643-2 0  9998
2 68513  53.1582 327.8715 0000766  98.7522 261.3588 15.80967983  2397
STARLINK-37251
1 68514U 26068G   26104.88806949  .00201457  00000+0  99684-3 0  9998
2 68514  53.1586 327.8665 0001870 103.3979 256.7252 15.80953970  2399
STARLINK-36293
1 68515U 26068H   26104.88731922  .00206425  00000+0  10226-2 0  9991
2 68515  53.1584 327.8616 0001008 103.1594 256.9542 15.80914464  2397
STARLINK-36290
1 68516U 26068J   26104.88656822  .00165936  00000+0  82542-3 0  9999
2 68516  53.1584 327.8563 0000844 112.2041 247.9072 15.80945918  2390
STARLINK-36298
1 68517U 26068K   26104.88581899  .00246280  00000+0  12138-2 0  9996
2 68517  53.1585 327.8519 0001019  91.3597 268.7542 15.80913618  2396
STARLINK-36857
1 68518U 26068L   26104.88431818  .00209687  00000+0  10365-2 0  9992
2 68518  53.1583 327.8419 0001094  37.9871 322.1229 15.80953897  2398
STARLINK-36326
1 68519U 26068M   26104.88506948  .00294565  00000+0  14433-2 0  9999
2 68519  53.1581 327.8468 0000954  70.5129 289.5997 15.80908134  2396
STARLINK-37126
1 68520U 26068N   26104.88356744  .00189047  00000+0  93739-3 0  9993
2 68520  53.1584 327.8374 0000484  43.7909 316.3152 15.80945131  2393
STARLINK-36347
1 68521U 26068P   26104.88281957  .00228908  00000+0  11312-2 0  9993
2 68521  53.1588 327.8320 0000876  63.3310 296.7802 15.80903805  2393
STARLINK-36322
1 68522U 26068Q   26104.88206928  .00231970  00000+0  11436-2 0  9999
2 68522  53.1584 327.8275 0000450  72.6953 287.4119 15.80947406  2396
STARLINK-37208
1 68523U 26068R   26104.88131838  .00145706  00000+0  72772-3 0  9999
2 68523  53.1590 327.8220 0000723  67.3835 292.7264 15.80922070  2397
STARLINK-36302
1 68524U 26068S   26104.88056869  .00263526  00000+0  12963-2 0  9996
2 68524  53.1588 327.8167 0000912  90.2128 269.8999 15.80906562  2393
