[{"OBJECT_NAME":"STARLINK-37262","OBJECT_ID":"2026-068A","EPOCH":"2026-04-14T21:25:17.996160","MEAN_MOTION":15.8093818,"ECCENTRICITY":9.61e-5,"INCLINATION":53.1587,"RA_OF_ASC_NODE":327.8979,"ARG_OF_PERICENTER":91.913,"MEAN_ANOMALY":268.2003,"EPHEMERIS_TYPE":0,"CLASSIFICATION_TYPE":"U","NORAD_CAT_ID":68508,"ELEMENT_SET_NO":999,"REV_AT_EPOCH":239,"BSTAR":0.00077896,"MEAN_MOTION_DOT":0.00156324,"MEAN_MOTION_DDOT":0},{"OBJECT_NAME":"STARLINK-36292","OBJECT_ID":"2026-068B","EPOCH":"2026-04-14T21:24:13.158144","MEAN_MOTION":15.80938614,"ECCENTRICITY":8.4e-5,"INCLINATION":53.1581,"RA_OF_ASC_NODE":327.8916,"ARG_OF_PERICENTER":78.6938,"MEAN_ANOMALY":281.4179,"EPHEMERIS_TYPE":0,"CLASSIFICATION_TYPE":"U","NORAD_CAT_ID":68509,"ELEMENT_SET_NO":999,"REV_AT_EPOCH":239,"BSTAR":0.00079397,"MEAN_MOTION_DOT":0.00159411,"MEAN_MOTION_DDOT":0},{"OBJECT_NAME":"STARLINK-37260","OBJECT_ID":"2026-068C","EPOCH":"2026-04-14T21:23:08.479968","MEAN_MOTION":15.80900809,"ECCENTRICITY":8.36e-5,"INCLINATION":53.1583,"RA_OF_ASC_NODE":327.8873,"ARG_OF_PERICENTER":84.7574,"MEAN_ANOMALY":275.3544,"EPHEMERIS_TYPE":0,"CLASSIFICATION_TYPE":"U","NORAD_CAT_ID":68510,"ELEMENT_SET_NO":999,"REV_AT_EPOCH":239,"BSTAR":0.0011053,"MEAN_MOTION_DOT":0.00223468,"MEAN_MOTION_DDOT":0},{"OBJECT_NAME":"STARLINK-37280","OBJECT_ID":"2026-068D","EPOCH":"2026-04-14T19:51:01.682784","MEAN_MOTION":15.80883976,"ECCENTRICITY":0.0001126,"INCLINATION":53.1581,"RA_OF_ASC_NODE":328.1986,"ARG_OF_PERICENTER":35.4279,"MEAN_ANOMALY":324.6818,"EPHEMERIS_TYPE":0,"CLASSIFICATION_TYPE":"U","NORAD_CAT_ID":68511,"ELEMENT_SET_NO":999,"REV_AT_EPOCH":238,"BSTAR":0.0010993,"MEAN_MOTION_DOT":0.00222046,"MEAN_MOTION_DDOT":0},{"OBJECT_NAME":"STARLINK-37286","OBJECT_ID":"2026-068E","EPOCH":"2026-04-14T21:20:58.841952","MEAN_MOTION":15.80898442,"ECCENTRICITY":5.98e-5,"INCLINATION":53.1582,"RA_OF_ASC_NODE":327.8775,"ARG_OF_PERICENTER":78.4723,"MEAN_ANOMALY":281.6367,"EPHEMERIS_TYPE":0,"CLASSIFICATION_TYPE":"U","NORAD_CAT_ID":68512,"ELEMENT_SET_NO":999,"REV_AT_EPOCH":239,"BSTAR":0.0014279,"MEAN_MOTION_DOT":0.00291174,"MEAN_MOTION_DDOT":0},{"OBJECT_NAME":"STARLINK-36250","OBJECT_ID":"2026-068F","EPOCH":"2026-04-14T21:19:53.870880","MEAN_MOTION":15.80967983,"ECCENTRICITY":7.66e-5,"INCLINATION":53.1582,"RA_OF_ASC_NODE":327.8715,"ARG_OF_PERICENTER":98.7522,"MEAN_ANOMALY":261.3588,"EPHEMERIS_TYPE":0,"CLASSIFICATION_TYPE":"U","NORAD_CAT_ID":68513,"ELEMENT_SET_NO":999,"REV_AT_EPOCH":239,"BSTAR":0.0011643,"MEAN_MOTION_DOT":0.00236531,"MEAN_MOTION_DDOT":0},{"OBJECT_NAME":"STARLINK-37251","OBJECT_ID":"2026-068G","EPOCH":"2026-04-14T21:18:49.203936","MEAN_MOTION":15.8095397,"ECCENTRICITY":0.000187,"INCLINATION":53.1586,"RA_OF_ASC_NODE":327.8665,"ARG_OF_PERICENTER":103.3979,"MEAN_ANOMALY":256.7252,"EPHEMERIS_TYPE":0,"CLASSIFICATION_TYPE":"U","NORAD_CAT_ID":68514,"ELEMENT_SET_NO":999,"REV_AT_EPOCH":239,"BSTAR":0.00099684,"MEAN_MOTION_DOT":0.00201457,"MEAN_MOTION_DDOT":0},{"OBJECT_NAME":"STARLINK-36293","OBJECT_ID":"2026-068H","EPOCH":"2026-04-14T21:17:44.380608","MEAN_MOTION":15.80914464,"ECCENTRICITY":0.0001008,"INCLINATION":53.1584,"RA_OF_ASC_NODE":327.8616,"ARG_OF_PERICENTER":103.1594,"MEAN_ANOMALY":256.9542,"EPHEMERIS_TYPE":0,"CLASSIFICATION_TYPE":"U","NORAD_CAT_ID":68515,"ELEMENT_SET_NO":999,"REV_AT_EPOCH":239,"BSTAR":0.0010226,"MEAN_MOTION_DOT":0.00206425,"MEAN_MOTION_DDOT":0},{"OBJECT_NAME":"STARLINK-36290","OBJECT_ID":"2026-068J","EPOCH":"2026-04-14T21:16:39.494208","MEAN_MOTION":15.80945918,"ECCENTRICITY":8.44e-5,"INCLINATION":53.1584,"RA_OF_ASC_NODE":327.8563,"ARG_OF_PERICENTER":112.2041,"MEAN_ANOMALY":247.9072,"EPHEMERIS_TYPE":0,"CLASSIFICATION_TYPE":"U","NORAD_CAT_ID":68516,"ELEMENT_SET_NO":999,"REV_AT_EPOCH":239,"BSTAR":0.00082542,"MEAN_MOTION_DOT":0.00165936,"MEAN_MOTION_DDOT":0},{"OBJECT_NAME":"STARLINK-36298","OBJECT_ID":"2026-068K","EPOCH":"2026-04-14T21:15:34.760736","MEAN_MOTION":15.80913618,"ECCENTRICITY":0.0001019,"INCLINATION":53.1585,"RA_OF_ASC_NODE":327.8519,"ARG_OF_PERICENTER":91.3597,"MEAN_ANOMALY":268.7542,"EPHEMERIS_TYPE":0,"CLASSIFICATION_TYPE":"U","NORAD_CAT_ID":68517,"ELEMENT_SET_NO":999,"REV_AT_EPOCH":239,"BSTAR":0.0012138,"MEAN_MOTION_DOT":0.0024628,"MEAN_MOTION_DDOT":0},{"OBJECT_NAME":"STARLINK-36857","OBJECT_ID":"2026-068L","EPOCH":"2026-04-14T21:13:25.090752","MEAN_MOTION":15.80953897,"ECCENTRICITY":0.0001094,"INCLINATION":53.1583,"RA_OF_ASC_NODE":327.8419,"ARG_OF_PERICENTER":37.9871,"MEAN_ANOMALY":322.1229,"EPHEMERIS_TYPE":0,"CLASSIFICATION_TYPE":"U","NORAD_CAT_ID":68518,"ELEMENT_SET_NO":999,"REV_AT_EPOCH":239,"BSTAR":0.0010365,"MEAN_MOTION_DOT":0.00209687,"MEAN_MOTION_DDOT":0},{"OBJECT_NAME":"STARLINK-36326","OBJECT_ID":"2026-068M","EPOCH":"2026-04-14T21:14:30.003072","MEAN_MOTION":15.80908134,"ECCENTRICITY":9.54e-5,"INCLINATION":53.1581,"RA_OF_ASC_NODE":327.8468,"ARG_OF_PERICENTER":70.5129,"MEAN_ANOMALY":289.5997,"EPHEMERIS_TYPE":0,"CLASSIFICATION_TYPE":"U","NORAD_CAT_ID":68519,"ELEMENT_SET_NO":999,"REV_AT_EPOCH":239,"BSTAR":0.0014433,"MEAN_MOTION_DOT":0.00294565,"MEAN_MOTION_DDOT":0},{"OBJECT_NAME":"STARLINK-37126","OBJECT_ID":"2026-068N","EPOCH":"2026-04-14T21:12:20.226816","MEAN_MOTION":15.80945131,"ECCENTRICITY":4.84e-5,"INCLINATION":53.1584,"RA_OF_ASC_NODE":327.8374,"ARG_OF_PERICENTER":43.7909,"MEAN_ANOMALY":316.3152,"EPHEMERIS_TYPE":0,"CLASSIFICATION_TYPE":"U","NORAD_CAT_ID":68520,"ELEMENT_SET_NO":999,"REV_AT_EPOCH":239,"BSTAR":0.00093739,"MEAN_MOTION_DOT":0.00189047,"MEAN_MOTION_DDOT":0},{"OBJECT_NAME":"STARLINK-36347","OBJECT_ID":"2026-068P","EPOCH":"2026-04-14T21:11:15.610848","MEAN_MOTION":15.80903805,"ECCENTRICITY":8.76e-5,"INCLINATION":53.1588,"RA_OF_ASC_NODE":327.832,"ARG_OF_PERICENTER":63.331,"MEAN_ANOMALY":296.7802,"EPHEMERIS_TYPE":0,"CLASSIFICATION_TYPE":"U","NORAD_CAT_ID":68521,"ELEMENT_SET_NO":999,"REV_AT_EPOCH":239,"BSTAR":0.0011312,"MEAN_MOTION_DOT":0.00228908,"MEAN_MOTION_DDOT":0},{"OBJECT_NAME":"STARLINK-36322","OBJECT_ID":"2026-068Q","EPOCH":"2026-04-14T21:10:10.785792","MEAN_MOTION":15.80947406,"ECCENTRICITY":4.5e-5,"INCLINATION":53.1584,"RA_OF_ASC_NODE":327.8275,"ARG_OF_PERICENTER":72.6953,"MEAN_ANOMALY":287.4119,"EPHEMERIS_TYPE":0,"CLASSIFICATION_TYPE":"U","NORAD_CAT_ID":68522,"ELEMENT_SET_NO":999,"REV_AT_EPOCH":239,"BSTAR":0.0011436,"MEAN_MOTION_DOT":0.0023197,"MEAN_MOTION_DDOT":0},{"OBJECT_NAME":"STARLINK-37208","OBJECT_ID":"2026-068R","EPOCH":"2026-04-14T21:09:05.908032","MEAN_MOTION":15.8092207,"ECCENTRICITY":7.23e-5,"INCLINATION":53.159,"RA_OF_ASC_NODE":327.822,"ARG_OF_PERICENTER":67.3835,"MEAN_ANOMALY":292.7264,"EPHEMERIS_TYPE":0,"CLASSIFICATION_TYPE":"U","NORAD_CAT_ID":68523,"ELEMENT_SET_NO":999,"REV_AT_EPOCH":239,"BSTAR":0.00072772,"MEAN_MOTION_DOT":0.00145706,"MEAN_MOTION_DDOT":0},{"OBJECT_NAME":"STARLINK-36302","OBJECT_ID":"2026-068S","EPOCH":"2026-04-14T21:08:01.134816","MEAN_MOTION":15.80906562,"ECCENTRICITY":9.12e-5,"INCLINATION":53.1588,"RA_OF_ASC_NODE":327.8167,"ARG_OF_PERICENTER":90.2128,"MEAN_ANOMALY":269.8999,"EPHEMERIS_TYPE":0,"CLASSIFICATION_TYPE":"U","NORAD_CAT_ID":68524,"ELEMENT_SET_NO":999,"REV_AT_EPOCH":239,"BSTAR":0.0012963,"MEAN_MOTION_DOT":0.00263526,"MEAN_MOTION_DDOT":0}]
